[{"OBJECT_NAME":"STARLINK-3864","OBJECT_ID":"2022-049T","EPOCH":"2026-03-09T09:14:51.760320","MEAN_MOTION":15.08831635,"ECCENTRICITY":0.00012627,"INCLINATION":53.2168,"RA_OF_ASC_NODE":60.4867,"ARG_OF_PERICENTER":86.5607,"MEAN_ANOMALY":273.553,"EPHEMERIS_TYPE":0,"CLASSIFICATION_TYPE":"U","NORAD_CAT_ID":52468,"ELEMENT_SET_NO":999,"REV_AT_EPOCH":21220,"BSTAR":-8.0014912e-5,"MEAN_MOTION_DOT":-1.561e-5,"MEAN_MOTION_DDOT":0},{"OBJECT_NAME":"AAC-HSI-SAT1","OBJECT_ID":"2023-054AZ","EPOCH":"2026-03-09T21:58:39.446112","MEAN_MOTION":15.121108,"ECCENTRICITY":0.00115868,"INCLINATION":97.3836,"RA_OF_ASC_NODE":308.6521,"ARG_OF_PERICENTER":105.3166,"MEAN_ANOMALY":254.9346,"EPHEMERIS_TYPE":0,"CLASSIFICATION_TYPE":"U","NORAD_CAT_ID":56225,"ELEMENT_SET_NO":999,"REV_AT_EPOCH":16036,"BSTAR":0.00016323049,"MEAN_MOTION_DOT":2.752e-5,"MEAN_MOTION_DDOT":0}]
